NUSAT-1 (FRESCO)        
1 41557U 16033B   22158.53593487  .00007477  00000+0  22584-3 0  9995
2 41557  97.3875 256.2167 0011853  60.3873  37.2563 15.34475059335861
BEESAT-4                
1 41619U 16040W   22158.11530645  .00009090  00000+0  30679-3 0  9990
2 41619  97.2171 209.0224 0011013 146.8215 213.3720 15.30851321319147
CAS-2T & KS-1Q          
1 41847U 16066G   22158.46590178  .00000334  00000+0  61051-4 0  9997
2 41847  98.5512 223.1466 0362841 239.6651 116.8189 14.38568233292916
NAYIF-1 (EO-88)         
1 42017U 17008BX  22158.45670271  .00010814  00000+0  32746-3 0  9998
2 42017  97.2688 224.7175 0003337 273.9782  86.1080 15.34335101295542
ZHUHAI-1 02 (CAS-4B)    
1 42759U 17034B   22158.35154809  .00002249  00000+0  14209-3 0  9990
2 42759  43.0192  28.3797 0009477 234.2699 295.7677 15.11831888274826
ZHUHAI-1 01 (CAS-4A)    
1 42761U 17034D   22158.62570376  .00002214  00000+0  13975-3 0  9995
2 42761  43.0186  25.6627 0009901 237.3397 148.4791 15.11926228274874
MAX VALIER SAT          
1 42778U 17036P   22158.55896918  .00005356  00000+0  20545-3 0  9991
2 42778  97.2057 200.0006 0010695  12.6905 347.4602 15.26846398275396
RADFXSAT (FOX-1B)       
1 43017U 17073E   22158.44210467  .00001425  00000+0  11244-3 0  9995
2 43017  97.6765  53.0447 0247810 220.3903 137.8680 14.81344273245631
FOX-1D (AO-92)          
1 43137U 18004AC  22158.47702044  .00006388  00000+0  22776-3 0  9998
2 43137  97.3682 233.7241 0008432  48.4655 311.7307 15.29218760244829
DIWATA-2B               
1 43678U 18084H   22158.45785103  .00000479  00000+0  52822-4 0  9992
2 43678  97.9691 291.6063 0008975 324.8403  35.2255 14.92154386196361
ES'HAIL 2               
1 43700U 18090A   22158.53673105  .00000156  00000+0  00000+0 0  9990
2 43700   0.0175 344.0971 0001204  95.2131  35.6186  1.00269509 12931
FOX-1CLIFF (AO-95)      
1 43770U 18099N   22158.15886739  .00000797  00000+0  75283-4 0  9994
2 43770  97.6213 224.7762 0012987 314.6175  45.3986 14.96392399191477
ITASAT 1                
1 43786U 18099AE  22158.42062715  .00000890  00000+0  83198-4 0  9999
2 43786  97.6241 225.9441 0013420 305.9221  54.0755 14.96547528191556
JY1SAT (JO-97)          
1 43803U 18099AX  22158.44167591  .00001130  00000+0  10297-3 0  9996
2 43803  97.6195 225.7173 0013512 303.3410  56.6518 14.97024583191577
UWE-4                   
1 43880U 18111E   22158.51544624  .00000943  00000+0  84450-4 0  9994
2 43880  97.6696  65.0004 0012301   1.8492 358.2774 14.98106577188218
NEXUS (FO-99)           
1 43937U 19003F   22158.36249290  .00008124  00000+0  27656-3 0  9995
2 43937  97.1309 192.1078 0020961 184.3163 175.7901 15.30449346188432
PSAT2 (NO-104)          
1 44354U 19036R   22158.54504628  .00059342 -56155-5  53972-3 0  9991
2 44354  28.5262 246.9936 0234319 218.7909 139.5655 15.38508283163157
JAISAT-1                
1 44419U 19038F   22158.47827886  .00004594  00000+0  23372-3 0  9992
2 44419  97.6351 128.5229 0020052 160.3192 199.8819 15.17173901161542
DUCHIFAT-3              
1 44854U 19089C   22158.39549676  .00001582  00000+0  12767-3 0  9990
2 44854  36.9655 159.9693 0007069 144.6321 215.4876 15.01013583136422
CAS-6 (TO-108)          
1 44881U 19093C   22158.51654607  .00000344  00000+0  50302-4 0  9993
2 44881  97.8921 237.8671 0014164 214.2080 145.8221 14.81716985133303
RS-44 & BREEZE-KM R/B   
1 44909U 19096E   22158.34000894  .00000002  00000+0 -31718-4 0  9993
2 44909  82.5225 236.9925 0216953 343.6820  15.7368 12.79713335114210
ORBITAL FACTORY 2 (OF-2)
1 45113U 19071C   22158.27877249  .00018519  00000+0  39435-3 0  9996
2 45113  51.6380 109.4095 0010420 125.8932 234.3024 15.44935165131808
HUSKYSAT-1 (HO-107)     
1 45119U 19071J   22158.27868822  .00016114  00000+0  35456-3 0  9997
2 45119  51.6376 109.3849 0010280 123.1542 237.0432 15.44075498131792
BY70-2                  
1 45857U 20042B   22158.55371069  .00004370  00000+0  58814-3 0  9993
2 45857  97.9540 235.4881 0012029 143.4925 216.7102 14.79682739103995
SALSAT                  
1 46495U 20068K   22158.38631510  .00001833  00000+0  13521-3 0  9998
2 46495  97.7292  99.6832 0015508 315.4585  44.5394 15.04470939 92678
BY70-3                  
1 46839U 20079N   22158.51205862  .00013457  00000+0  32169-3 0  9998
2 46839  97.1975 230.7377 0005128  26.0193  70.4113 15.41592891 88711
RADFXSAT-2 (AO-109)     
1 47311U 21002C   22158.11072354  .00004462  00000+0  18717-3 0  9994
2 47311  60.6865  41.1772 0014309 323.8379  36.1740 15.25144563 76889
UVSQ-SAT                
1 47438U 21006AB  22158.11283866  .00003917  00000+0  20962-3 0  9999
2 47438  97.4374 217.3358 0010496 315.5317  44.5073 15.15583979 75712
DIY-1 (ARDUIQUBE)       
1 47963U 21022AH  22158.22955101  .00008656  00000+0  48947-3 0  9998
2 47963  97.5326  59.7094 0017687 160.0691 200.1234 15.13183820 65408
XW-3 (CAS-9)            
1 50466U 21131B   22158.50369750  .00000034  00000+0  25874-4 0  9998
2 50466  98.5804 235.7619 0005079 164.0006 196.1343 14.38496856 23486
TEVEL-3                 
1 50988U 22002E   22158.44013549  .00004497  00000+0  24899-3 0  9992
2 50988  97.4812 225.5900 0011380  99.6523 272.9020 15.14280450 21907
TEVEL-8                 
1 50989U 22002F   22158.44488301  .00004398  00000+0  24395-3 0  9996
2 50989  97.4822 225.6108 0011378  98.8131 273.6162 15.14228133 21908
TEVEL-5                 
1 50998U 22002Q   22158.27699292  .00004290  00000+0  23452-3 0  9994
2 50998  97.4806 225.5117 0012865  95.7774 337.3648 15.14746642 21884
TEVEL-6                 
1 50999U 22002R   22158.54717682  .00004233  00000+0  23143-3 0  9993
2 50999  97.4792 225.7758 0012785  95.6143  11.6401 15.14752504 21920
TEVEL-1                 
1 51013U 22002AF  22158.44214400  .00004444  00000+0  24630-3 0  9996
2 51013  97.4804 225.5775 0011165  99.7287 272.6261 15.14256480 21907
TEVEL-7                 
1 51062U 22002CG  22158.44612613  .00004400  00000+0  24412-3 0  9998
2 51062  97.4816 225.6021 0011325  98.6047 273.9002 15.14218054 21901
TEVEL-4                 
1 51063U 22002CH  22158.72627730  .00004390  00000+0  24360-3 0  9996
2 51063  97.4814 225.8744 0011284  97.4394 358.9705 15.14213303 21940
TEVEL-2                 
1 51069U 22002CP  22158.44110275  .00004465  00000+0  24731-3 0  9997
2 51069  97.4798 225.5815 0011255  99.4120 273.2418 15.14272447 21900
